{
  "type": "FeatureCollection",
  "features": [
    {
      "type": "Feature",
      "properties": {
        "norad_id": 24876,
        "name": "GPS BIIR-2  (PRN 13)",
        "group": "gnss",
        "lat": -41.27769339055889,
        "lon": -37.349407220771916,
        "alt_km": 20442.823322135904,
        "timestamp": "2025-12-04T13:52:00.684491+00:00",
        "meta_object_name": "GPS BIIR-2  (PRN 13)",
        "meta_object_id": "1997-035A",
        "meta_epoch": "2025-12-03T06:13:52.381920",
        "meta_mean_motion": 2.00563443,
        "meta_eccentricity": 0.00966798,
        "meta_inclination": 55.8906,
        "meta_ra_of_asc_node": 106.2397,
        "meta_arg_of_pericenter": 57.0195,
        "meta_mean_anomaly": 303.8734,
        "meta_ephemeris_type": 0,
        "meta_classification_type": "U",
        "meta_norad_cat_id": 24876,
        "meta_element_set_no": 999,
        "meta_rev_at_epoch": 20802,
        "meta_bstar": 0,
        "meta_mean_motion_dot": 1.7e-07,
        "meta_mean_motion_ddot": 0,
        "tle_line1": "1 24876U 97035A   25337.25963405  .00000017  00000+0  00000+0 0  9991",
        "tle_line2": "2 24876  55.8906 106.2397 0096679  57.0195 303.8734  2.00563443208021"
      },
      "geometry": {
        "type": "Point",
        "coordinates": [
          -37.349407220771916,
          -41.27769339055889
        ]
      }
    },
    {
      "type": "Feature",
      "properties": {
        "norad_id": 26360,
        "name": "GPS BIIR-4  (PRN 20)",
        "group": "gnss",
        "lat": -28.138500289055806,
        "lon": 5.233856156726709,
        "alt_km": 20173.879200791103,
        "timestamp": "2025-12-04T13:52:00.684534+00:00",
        "meta_object_name": "GPS BIIR-4  (PRN 20)",
        "meta_object_id": "2000-025A",
        "meta_epoch": "2025-12-03T20:43:35.059008",
        "meta_mean_motion": 2.0056828,
        "meta_eccentricity": 0.00387989,
        "meta_inclination": 55.0399,
        "meta_ra_of_asc_node": 27.1971,
        "meta_arg_of_pericenter": 241.132,
        "meta_mean_anomaly": 287.663,
        "meta_ephemeris_type": 0,
        "meta_classification_type": "U",
        "meta_norad_cat_id": 26360,
        "meta_element_set_no": 999,
        "meta_rev_at_epoch": 18735,
        "meta_bstar": 0,
        "meta_mean_motion_dot": -7.1e-07,
        "meta_mean_motion_ddot": 0,
        "tle_line1": "1 26360U 00025A   25337.86360022 -.00000071  00000+0  00000+0 0  9998",
        "tle_line2": "2 26360  55.0399  27.1971 0038798 241.1320 287.6630  2.00568280187352"
      },
      "geometry": {
        "type": "Point",
        "coordinates": [
          5.233856156726709,
          -28.138500289055806
        ]
      }
    },
    {
      "type": "Feature",
      "properties": {
        "norad_id": 26407,
        "name": "GPS BIIR-5  (PRN 22)",
        "group": "gnss",
        "lat": 13.793427494118305,
        "lon": 32.96583537264542,
        "alt_km": 20430.453979111106,
        "timestamp": "2025-12-04T13:52:00.684552+00:00",
        "meta_object_name": "GPS BIIR-5  (PRN 22)",
        "meta_object_id": "2000-040A",
        "meta_epoch": "2025-12-03T20:42:39.159072",
        "meta_mean_motion": 2.00567714,
        "meta_eccentricity": 0.0126499,
        "meta_inclination": 54.893,
        "meta_ra_of_asc_node": 222.9221,
        "meta_arg_of_pericenter": 301.6438,
        "meta_mean_anomaly": 66.2593,
        "meta_ephemeris_type": 0,
        "meta_classification_type": "U",
        "meta_norad_cat_id": 26407,
        "meta_element_set_no": 999,
        "meta_rev_at_epoch": 18603,
        "meta_bstar": 0,
        "meta_mean_motion_dot": 6e-07,
        "meta_mean_motion_ddot": 0,
        "tle_line1": "1 26407U 00040A   25337.86295323  .00000060  00000+0  00000+0 0  9995",
        "tle_line2": "2 26407  54.8930 222.9221 0126499 301.6438  66.2593  2.00567714186037"
      },
      "geometry": {
        "type": "Point",
        "coordinates": [
          32.96583537264542,
          13.793427494118305
        ]
      }
    },
    {
      "type": "Feature",
      "properties": {
        "norad_id": 27663,
        "name": "GPS BIIR-8  (PRN 16)",
        "group": "gnss",
        "lat": -46.157486582651075,
        "lon": 175.75764886585955,
        "alt_km": 20337.321473661646,
        "timestamp": "2025-12-04T13:52:00.684567+00:00",
        "meta_object_name": "GPS BIIR-8  (PRN 16)",
        "meta_object_id": "2003-005A",
        "meta_epoch": "2025-12-02T11:09:18.319104",
        "meta_mean_motion": 2.00571356,
        "meta_eccentricity": 0.014704,
        "meta_inclination": 54.9261,
        "meta_ra_of_asc_node": 222.787,
        "meta_arg_of_pericenter": 51.656,
        "meta_mean_anomaly": 162.4446,
        "meta_ephemeris_type": 0,
        "meta_classification_type": "U",
        "meta_norad_cat_id": 27663,
        "meta_element_set_no": 999,
        "meta_rev_at_epoch": 16736,
        "meta_bstar": 0,
        "meta_mean_motion_dot": 5.6e-07,
        "meta_mean_motion_ddot": 0,
        "tle_line1": "1 27663U 03005A   25336.46479536  .00000056  00000+0  00000+0 0  9994",
        "tle_line2": "2 27663  54.9261 222.7870 0147040  51.6560 162.4446  2.00571356167369"
      },
      "geometry": {
        "type": "Point",
        "coordinates": [
          175.75764886585955,
          -46.157486582651075
        ]
      }
    },
    {
      "type": "Feature",
      "properties": {
        "norad_id": 28190,
        "name": "GPS BIIR-11 (PRN 19)",
        "group": "gnss",
        "lat": 54.26289724901037,
        "lon": 26.915366928257296,
        "alt_km": 20073.37067931615,
        "timestamp": "2025-12-04T13:52:00.684581+00:00",
        "meta_object_name": "GPS BIIR-11 (PRN 19)",
        "meta_object_id": "2004-009A",
        "meta_epoch": "2025-12-03T10:35:53.866752",
        "meta_mean_motion": 2.00560969,
        "meta_eccentricity": 0.01082073,
        "meta_inclination": 54.9946,
        "meta_ra_of_asc_node": 283.5937,
        "meta_arg_of_pericenter": 167.4902,
        "meta_mean_anomaly": 191.0311,
        "meta_ephemeris_type": 0,
        "meta_classification_type": "U",
        "meta_norad_cat_id": 28190,
        "meta_element_set_no": 999,
        "meta_rev_at_epoch": 15901,
        "meta_bstar": 0,
        "meta_mean_motion_dot": -4.4e-07,
        "meta_mean_motion_ddot": 0,
        "tle_line1": "1 28190U 04009A   25337.44159568 -.00000044  00000+0  00000+0 0  9992",
        "tle_line2": "2 28190  54.9946 283.5937 0108207 167.4902 191.0311  2.00560969159012"
      },
      "geometry": {
        "type": "Point",
        "coordinates": [
          26.915366928257296,
          54.26289724901037
        ]
      }
    },
    {
      "type": "Feature",
      "properties": {
        "norad_id": 28474,
        "name": "GPS BIIR-13 (PRN 02)",
        "group": "gnss",
        "lat": 18.036971544867036,
        "lon": 139.66037326262503,
        "alt_km": 20573.78501847153,
        "timestamp": "2025-12-04T13:52:00.684594+00:00",
        "meta_object_name": "GPS BIIR-13 (PRN 02)",
        "meta_object_id": "2004-045A",
        "meta_epoch": "2025-12-02T14:51:16.748640",
        "meta_mean_motion": 2.00568864,
        "meta_eccentricity": 0.01705399,
        "meta_inclination": 55.2456,
        "meta_ra_of_asc_node": 332.8132,
        "meta_arg_of_pericenter": 308.8127,
        "meta_mean_anomaly": 235.5488,
        "meta_ephemeris_type": 0,
        "meta_classification_type": "U",
        "meta_norad_cat_id": 28474,
        "meta_element_set_no": 999,
        "meta_rev_at_epoch": 15448,
        "meta_bstar": 0,
        "meta_mean_motion_dot": -6.2e-07,
        "meta_mean_motion_ddot": 0,
        "tle_line1": "1 28474U 04045A   25336.61894385 -.00000062  00000+0  00000+0 0  9998",
        "tle_line2": "2 28474  55.2456 332.8132 0170539 308.8127 235.5488  2.00568864154486"
      },
      "geometry": {
        "type": "Point",
        "coordinates": [
          139.66037326262503,
          18.036971544867036
        ]
      }
    },
    {
      "type": "Feature",
      "properties": {
        "norad_id": 28874,
        "name": "GPS BIIRM-1 (PRN 17)",
        "group": "gnss",
        "lat": 46.76045542380605,
        "lon": 53.01343455720348,
        "alt_km": 20530.344627837916,
        "timestamp": "2025-12-04T13:52:00.684608+00:00",
        "meta_object_name": "GPS BIIRM-1 (PRN 17)",
        "meta_object_id": "2005-038A",
        "meta_epoch": "2025-12-02T16:12:27.400896",
        "meta_mean_motion": 2.00548806,
        "meta_eccentricity": 0.01328204,
        "meta_inclination": 55.0411,
        "meta_ra_of_asc_node": 281.1063,
        "meta_arg_of_pericenter": 293.4087,
        "meta_mean_anomaly": 250.3584,
        "meta_ephemeris_type": 0,
        "meta_classification_type": "U",
        "meta_norad_cat_id": 28874,
        "meta_element_set_no": 999,
        "meta_rev_at_epoch": 14789,
        "meta_bstar": 0,
        "meta_mean_motion_dot": -4.3e-07,
        "meta_mean_motion_ddot": 0,
        "tle_line1": "1 28874U 05038A   25336.67531714 -.00000043  00000+0  00000+0 0  9994",
        "tle_line2": "2 28874  55.0411 281.1063 0132820 293.4087 250.3584  2.00548806147896"
      },
      "geometry": {
        "type": "Point",
        "coordinates": [
          53.01343455720348,
          46.76045542380605
        ]
      }
    }
  ]
}